#dP2024  8 16  6  0  0.00000000      96 __u+U IGS20 EXT  IAC
## 2327 453600.00000000   900.00000000 60538 0.2500000000000
+   53   G02G03G04G05G06G07G08G09G10G11G12G13G14G15G16G17G18
+        G19G20G21G22G23G24G25G26G27G28G29G30G31G32R01R02R03
+        R04R05R07R08R09R11R12R14R15R16R17R18R19R20R21R22R24
+        R25R26  0  0  0  0  0  0  0  0  0  0  0  0  0  0  0
+          0  0  0  0  0  0  0  0  0  0  0  0  0  0  0  0  0
++         9  8  7  9  7  8  8  8 10  8  8 10  8  9  8  8  8
++         7  8  9  7  9  7  8  8  7  8  4  8  8  7  8  9  8
++         8  8  8  8  9  8  8  7  8  5  7  8 10  8  9  7  7
++        10  8  0  0  0  0  0  0  0  0  0  0  0  0  0  0  0
++         0  0  0  0  0  0  0  0  0  0  0  0  0  0  0  0  0
%c M  cc GPS ccc cccc cccc cccc cccc ccccc ccccc ccccc ccccc
%c cc cc ccc ccc cccc cccc cccc cccc ccccc ccccc ccccc ccccc
%f  0.0000000  0.000000000  0.00000000000  0.000000000000000
%f  0.0000000  0.000000000  0.00000000000  0.000000000000000
%i    0    0    0    0      0      0      0      0         0
%i    0    0    0    0      0      0      0      0         0
/* IAC                                ULTRA-RAPID PREDICTION
/* S/V CLOCKS ARE ALIGNED TO GNSS TIME                      
/* G:C1WC2W R:C1PC2P E:C1XC5X C:C2IC6I J:C1CC2S             
/* PCV:IGS20_2317 OL/AL:FES2004  NONE     YN ORB:CoN CLK:CoN
*  2024 08 17  5 30  0.00000000
PG02  14333.014988 -22140.176547   -213.179267   -377.361158
PG03   8815.431648 -13111.868834 -21496.245144    503.063685
PG04   3225.905579 -21594.145874 -15010.838692    425.703473
PG05 -23078.998428   5835.426437  11670.879842   -183.465931
PG06 -13957.258539  -5560.641664 -21851.216651     93.259650
PG07    554.483748 -20526.433048  17115.610745    -50.627943
PG08  10850.646838 -12094.250461  20821.345109    318.569994
PG09  -6537.916620 -25109.052398  -5621.953376    317.446970
PG10  21860.668601  10689.899876  11244.749381    -96.323088
PG11 -20445.059386   7953.034546 -14901.925162   -722.564168
PG12 -12788.105881  11786.980587 -20339.599347   -530.959201
PG13 -14591.436669   2874.338610  21789.001433    671.252566
PG14 -18726.519338 -13155.997273  13708.938363    474.246786
PG15  -9087.202620  13831.548287  20228.631599    193.510365
PG16  25310.012861   -171.253917   8425.658431   -206.435134
PG17 -13393.414437 -20865.084776  -8871.250572    652.648163
PG18  -1018.551742  19957.340798  17400.514325   -646.764921
PG19 -15785.143976 -14198.791020 -16374.859686    525.639041
PG20 -26383.699370   1867.780974   1256.657341    371.605855
PG21  16780.071692 -19250.208279   5270.766552    103.404994
PG22 -23279.816502 -10548.495707   7046.329760    -52.098420
PG23  10761.339807  14462.108769  19604.990965    299.107288
PG24 -14534.136930  21932.255588    670.383848   -486.306844
PG25    312.893176  15730.595219 -21752.448400    499.324758
PG26  25971.713046   4835.600459  -4433.580208     98.890995
PG27  15898.251077     -2.292638  21049.624708    -33.109161
PG28  13035.552257   7900.827167 -21761.903999   -375.612595
PG29      0.000000      0.000000      0.000000   -583.607271
PG30  -8980.581076 -13678.379805  21033.893583   -338.549431
PG31  19533.151694  -3685.729131 -18023.537275   -225.776374
PG32  15478.394195  19124.642924 -10049.631554   -605.176149
PR01   5207.314102  17368.184036  17931.859555     94.745344
PR02  15954.918396  19695.904002   3210.762686    -24.164868
PR03  18697.946469  10657.362318 -13700.291265    105.786366
PR04  10925.414602  -3604.249816 -22744.060508    250.308951
PR05  -2439.268442 -16136.880856 -19588.391050    136.216040
PR07 -18529.554949 -10077.066696  14341.447991     88.953954
PR08 -10787.181524   4063.313934  22806.088433     -6.364755
PR09 -11036.993540  -8126.660454  21553.940469    203.850134
PR11 -23480.750349   8376.173825  -5433.975851     14.564396
PR12  -8692.184412  12228.009620 -20596.360403     43.724280
PR14  23335.682174   -617.164480 -10237.683411     26.816738
PR15  22804.652875  -8928.426649   7141.623001     76.765403
PR16   8833.202167 -12150.597326  20619.135958     28.324560
PR17  10903.091707    517.107374  23064.699431    114.088526
PR18  12572.755865 -15707.376047  15669.802927    157.414800
PR19   9462.870941 -23611.830672   1999.205241   -287.868856
PR20  -1680.973508 -18381.525053 -17583.487734   -117.777739
PR21 -10615.950451  -1299.200903 -23156.484416   -126.644048
PR22 -13076.480078  16333.812358 -14568.678122     67.785815
PR24   3182.374898  18005.514029  17788.484936    -68.162761
PR25 -11244.213901   -745.642270 -22877.335330   -100.547998
PR26 -11795.132102   2787.265407  22463.624779     10.044206
*  2024 08 17  5 45  0.00000000
PG02  14508.252096 -21927.287119   2670.308399   -377.354271
PG03  11161.819783 -12784.432786 -20566.357317    503.076831
PG04   4066.297694 -19952.930144 -16962.374995    425.710166
PG05 -24276.899993   5567.315279   9143.848937   -183.467068
PG06 -12446.811341  -7581.254385 -22144.053482     93.237588
PG07   1771.423893 -21844.049902  15197.762367    -50.622771
PG08  11981.238037  -9923.070634  21377.899615    318.582987
PG09  -5977.134117 -24500.932281  -8327.210048    317.460988
PG10  20476.259113  10664.856523  13633.978425    -96.333117
PG11 -19431.685827   6428.058233 -16866.470995   -722.569088
PG12 -14938.103738  11293.113961 -19095.302438   -530.961825
PG13 -15259.876491    442.454833  21538.289521    671.254527
PG14 -17039.122601 -13139.379807  15758.026796    474.254643
PG15 -10487.332555  11798.770451  20831.250752    193.514264
PG16  26093.852617    202.571815   5750.392735   -206.425766
PG17 -13485.671323 -21806.629137  -6169.764438    652.639438
PG18  -2281.848130  21363.400851  15486.364339   -646.767677
PG19 -16174.899536 -15875.506766 -14343.178688    525.643678
PG20 -26377.142043   1581.473379  -1595.653275    371.605511
PG21  16670.537705 -18457.779714   8048.805061    103.404461
PG22 -22333.344179 -10614.423017   9697.645121    -52.102149
PG23   8469.069054  14346.828696  20761.880433    299.115076
PG24 -14701.124546  21499.069630   3482.804481   -486.307345
PG25  -2099.644270  15507.370357 -21791.296232    499.324917
PG26  25325.645253   5117.713291  -7102.513147     98.884071
PG27  16835.124873   2223.438761  20236.191550    -33.109603
PG28  11629.280710   9949.816425 -21718.223979   -375.625931
PG29      0.000000      0.000000      0.000000   -583.605281
PG30  -7518.273181 -15517.018532  20289.463678   -338.543286
PG31  18351.947402  -1954.542819 -19461.130364   -225.776026
PG32  15700.796341  20145.969953  -7442.262777   -605.173581
PR01   3576.189456  15705.211192  19770.963296     94.746367
PR02  15671.208312  19156.026614   6360.097591    -24.164852
PR03  19875.732398  11641.558303 -10985.204111    105.787015
PR04  12887.439418  -1656.954855 -21929.885338    250.310529
PR05   -749.473802 -14271.523873 -21115.853403    136.216548
PR07 -19752.943553 -11120.103876  11680.497621     88.954618
PR08 -12754.984436   2134.996226  22034.635937     -6.364781
PR09  -8441.936293  -8883.264120  22404.847794    203.852051
PR11 -23901.749830   8642.535191  -2269.974296     14.562975
PR12 -11037.520037  12933.957836 -18980.043173     43.724646
PR14  21926.501924   -322.273685 -12992.756707     26.816713
PR15  23434.718839  -9227.350292   4034.974827     76.765013
PR16  11166.165477 -12874.800960  18978.857208     28.324835
PR17  10133.289723   3265.774072  23185.849483    114.091326
PR18  11860.400075 -13755.456430  17905.906289    157.416556
PR19   9117.426102 -23255.691869   5204.812373   -287.870144
PR20  -1197.523414 -20363.520355 -15288.431776   -117.778285
PR21  -9827.459850  -4051.290166 -23189.568970   -126.646913
PR22 -12385.984590  14510.122712 -16909.860508     67.778702
PR24   2736.428167  20016.132028  15571.944061    -68.164180
PR25 -10377.744721  -3444.564428 -23041.269240   -100.548622
PR26 -13751.049739    913.073254  21485.520562     10.045944
EOF
